start=new Date('2022-08-15T00:00:00.000Z').valueOf();
sats=[{"TLE_LINE1":"1 52342U 22045M   22226.91667824 -.00011354  00000-0 -69649-3 0  9999","OBJECT_ID":"2022-045M","PERIOD":"95.438","REF_FRAME":"TEME","GP_ID":"210234906","ECCENTRICITY":"0.00017840","COUNTRY_CODE":"US","EPOCH":"2022-08-14T22:00:00.999936","MEAN_ANOMALY":"17.0831","REV_AT_EPOCH":"130","APOAPSIS":"540.999","BSTAR":"-0.00069649000000","MEAN_MOTION_DDOT":"0.0000000000000","NORAD_CAT_ID":"52342","SEMIMAJOR_AXIS":"6917.900","ELEMENT_SET_NO":"999","CENTER_NAME":"EARTH","INCLINATION":"53.2132","LAUNCH_DATE":"2022-04-29","RCS_SIZE":"LARGE","ARG_OF_PERICENTER":"46.8084","FILE":"3536615","RA_OF_ASC_NODE":"287.4932","CLASSIFICATION_TYPE":"U","TIME_SYSTEM":"UTC","PERIAPSIS":"538.531","OBJECT_NAME":"STARLINK-3850","MEAN_MOTION_DOT":"-0.00011354","MEAN_ELEMENT_THEORY":"SGP4","TLE_LINE2":"2 52342  53.2132 287.4932 0001784  46.8084  17.0831 15.08833649  1300","OBJECT_TYPE":"PAYLOAD","SITE":"AFETR","EPHEMERIS_TYPE":"0","MEAN_MOTION":"15.08833649","DECAY_DATE":null},{"SITE":"AFETR","OBJECT_TYPE":"PAYLOAD","DECAY_DATE":null,"MEAN_MOTION":"15.08855250","EPHEMERIS_TYPE":"0","RCS_SIZE":"LARGE","LAUNCH_DATE":"2022-04-29","CLASSIFICATION_TYPE":"U","RA_OF_ASC_NODE":"297.4863","FILE":"3536615","ARG_OF_PERICENTER":"41.6302","TIME_SYSTEM":"UTC","PERIAPSIS":"538.338","TLE_LINE2":"2 52343  53.2168 297.4863 0001967  41.6302 307.1911 15.08855250  1307","MEAN_ELEMENT_THEORY":"SGP4","OBJECT_NAME":"STARLINK-3849","MEAN_MOTION_DOT":"-0.00015659","BSTAR":"-0.00096746000000","MEAN_MOTION_DDOT":"0.0000000000000","NORAD_CAT_ID":"52343","ELEMENT_SET_NO":"999","SEMIMAJOR_AXIS":"6917.834","CENTER_NAME":"EARTH","INCLINATION":"53.2168","TLE_LINE1":"1 52343U 22045N   22226.91667824 -.00015659  00000-0 -96746-3 0  9990","PERIOD":"95.437","OBJECT_ID":"2022-045N","REF_FRAME":"TEME","GP_ID":"210235034","COUNTRY_CODE":"US","ECCENTRICITY":"0.00019670","MEAN_ANOMALY":"307.1911","EPOCH":"2022-08-14T22:00:00.999936","APOAPSIS":"541.060","REV_AT_EPOCH":"130"},{"DECAY_DATE":null,"MEAN_MOTION":"15.08850540","EPHEMERIS_TYPE":"0","SITE":"AFETR","OBJECT_TYPE":"PAYLOAD","PERIAPSIS":"538.449","TLE_LINE2":"2 52344  53.2147 287.4983 0001828  40.9041  57.7819 15.08850540  1307","MEAN_ELEMENT_THEORY":"SGP4","OBJECT_NAME":"STARLINK-3851","MEAN_MOTION_DOT":"-0.00038247","LAUNCH_DATE":"2022-04-29","RCS_SIZE":"LARGE","CLASSIFICATION_TYPE":"U","ARG_OF_PERICENTER":"40.9041","FILE":"3536615","RA_OF_ASC_NODE":"287.4983","TIME_SYSTEM":"UTC","NORAD_CAT_ID":"52344","ELEMENT_SET_NO":"999","SEMIMAJOR_AXIS":"6917.848","CENTER_NAME":"EARTH","INCLINATION":"53.2147","BSTAR":"-0.00239710000000","MEAN_MOTION_DDOT":"0.0000000000000","GP_ID":"210234777","COUNTRY_CODE":"US","ECCENTRICITY":"0.00018280","MEAN_ANOMALY":"57.7819","EPOCH":"2022-08-14T22:00:00.999936","APOAPSIS":"540.978","REV_AT_EPOCH":"130","TLE_LINE1":"1 52344U 22045P   22226.91667824 -.00038247  00000-0 -23971-2 0  9998","PERIOD":"95.437","OBJECT_ID":"2022-045P","REF_FRAME":"TEME"},{"CENTER_NAME":"EARTH","INCLINATION":"53.2142","SEMIMAJOR_AXIS":"6917.809","ELEMENT_SET_NO":"999","NORAD_CAT_ID":"52345","MEAN_MOTION_DDOT":"0.0000000000000","BSTAR":"-0.00296330000000","REV_AT_EPOCH":"130","APOAPSIS":"540.691","EPOCH":"2022-08-14T22:00:00.999936","MEAN_ANOMALY":"307.8442","ECCENTRICITY":"0.00014700","COUNTRY_CODE":"US","GP_ID":"210235688","REF_FRAME":"TEME","OBJECT_ID":"2022-045Q","PERIOD":"95.436","TLE_LINE1":"1 52345U 22045Q   22226.91667824 -.00047170  00000-0 -29633-2 0  9995","EPHEMERIS_TYPE":"0","MEAN_MOTION":"15.08863300","DECAY_DATE":null,"SITE":"AFETR","OBJECT_TYPE":"PAYLOAD","OBJECT_NAME":"STARLINK-3852","MEAN_MOTION_DOT":"-0.00047170","TLE_LINE2":"2 52345  53.2142 287.4915 0001470  56.0068 307.8442 15.08863300  1307","MEAN_ELEMENT_THEORY":"SGP4","PERIAPSIS":"538.657","TIME_SYSTEM":"UTC","FILE":"3536615","ARG_OF_PERICENTER":"56.0068","RA_OF_ASC_NODE":"287.4915","CLASSIFICATION_TYPE":"U","LAUNCH_DATE":"2022-04-29","RCS_SIZE":"LARGE"},{"TIME_SYSTEM":"UTC","CLASSIFICATION_TYPE":"U","FILE":"3536615","RA_OF_ASC_NODE":"287.4988","ARG_OF_PERICENTER":"47.3632","RCS_SIZE":"LARGE","LAUNCH_DATE":"2022-04-29","MEAN_ELEMENT_THEORY":"SGP4","TLE_LINE2":"2 52346  53.2146 287.4988 0001713  47.3632  56.4799 15.08839249  1309","MEAN_MOTION_DOT":"-0.00000955","OBJECT_NAME":"STARLINK-3812","PERIAPSIS":"538.563","OBJECT_TYPE":"PAYLOAD","SITE":"AFETR","DECAY_DATE":null,"MEAN_MOTION":"15.08839249","EPHEMERIS_TYPE":"0","REF_FRAME":"TEME","PERIOD":"95.438","OBJECT_ID":"2022-045R","TLE_LINE1":"1 52346U 22045R   22226.91667824 -.00000955  00000-0 -41912-4 0  9992","REV_AT_EPOCH":"130","APOAPSIS":"540.933","MEAN_ANOMALY":"56.4799","EPOCH":"2022-08-14T22:00:00.999936","COUNTRY_CODE":"US","ECCENTRICITY":"0.00017130","GP_ID":"210235299","MEAN_MOTION_DDOT":"0.0000000000000","BSTAR":"-0.00004191200000","CENTER_NAME":"EARTH","INCLINATION":"53.2146","ELEMENT_SET_NO":"999","SEMIMAJOR_AXIS":"6917.883","NORAD_CAT_ID":"52346"},{"EPHEMERIS_TYPE":"0","DECAY_DATE":null,"MEAN_MOTION":"15.08847639","SITE":"AFETR","OBJECT_TYPE":"PAYLOAD","OBJECT_NAME":"STARLINK-3826","MEAN_MOTION_DOT":"-0.00002261","TLE_LINE2":"2 52347  53.2143 287.4916 0001536  56.1648 347.6480 15.08847639  1300","MEAN_ELEMENT_THEORY":"SGP4","PERIAPSIS":"538.659","TIME_SYSTEM":"UTC","FILE":"3536615","ARG_OF_PERICENTER":"56.1648","RA_OF_ASC_NODE":"287.4916","CLASSIFICATION_TYPE":"U","LAUNCH_DATE":"2022-04-29","RCS_SIZE":"LARGE","INCLINATION":"53.2143","CENTER_NAME":"EARTH","SEMIMAJOR_AXIS":"6917.857","ELEMENT_SET_NO":"999","NORAD_CAT_ID":"52347","MEAN_MOTION_DDOT":"0.0000000000000","BSTAR":"-0.00012395000000","REV_AT_EPOCH":"130","APOAPSIS":"540.785","EPOCH":"2022-08-14T22:00:00.999936","MEAN_ANOMALY":"347.6480","ECCENTRICITY":"0.00015360","COUNTRY_CODE":"US","GP_ID":"210235427","REF_FRAME":"TEME","OBJECT_ID":"2022-045S","PERIOD":"95.437","TLE_LINE1":"1 52347U 22045S   22226.91667824 -.00002261  00000-0 -12395-3 0  9997"},{"OBJECT_TYPE":"PAYLOAD","SITE":"AFETR","MEAN_MOTION":"15.08837931","DECAY_DATE":null,"EPHEMERIS_TYPE":"0","CLASSIFICATION_TYPE":"U","RA_OF_ASC_NODE":"287.5038","FILE":"3536615","ARG_OF_PERICENTER":"36.1045","RCS_SIZE":"LARGE","LAUNCH_DATE":"2022-04-29","TIME_SYSTEM":"UTC","TLE_LINE2":"2 52348  53.2162 287.5038 0002003  36.1045 107.7323 15.08837931  1302","MEAN_ELEMENT_THEORY":"SGP4","OBJECT_NAME":"STARLINK-3829","MEAN_MOTION_DOT":"-0.00001538","PERIAPSIS":"538.366","BSTAR":"-0.00007855000000","MEAN_MOTION_DDOT":"0.0000000000000","NORAD_CAT_ID":"52348","INCLINATION":"53.2162","CENTER_NAME":"EARTH","ELEMENT_SET_NO":"999","SEMIMAJOR_AXIS":"6917.887","TLE_LINE1":"1 52348U 22045T   22226.91667824 -.00001538  00000-0 -78550-4 0  9990","REF_FRAME":"TEME","PERIOD":"95.438","OBJECT_ID":"2022-045T","COUNTRY_CODE":"US","ECCENTRICITY":"0.00020030","GP_ID":"210235171","APOAPSIS":"541.137","REV_AT_EPOCH":"130","MEAN_ANOMALY":"107.7323","EPOCH":"2022-08-14T22:00:00.999936"},{"TIME_SYSTEM":"UTC","FILE":"3536615","RA_OF_ASC_NODE":"287.4976","ARG_OF_PERICENTER":"38.9400","CLASSIFICATION_TYPE":"U","LAUNCH_DATE":"2022-04-29","RCS_SIZE":"LARGE","OBJECT_NAME":"STARLINK-3819","MEAN_MOTION_DOT":"-0.00002081","TLE_LINE2":"2 52349  53.2145 287.4976 0001928  38.9400  44.8613 15.08847007  1302","MEAN_ELEMENT_THEORY":"SGP4","PERIAPSIS":"538.390","SITE":"AFETR","OBJECT_TYPE":"PAYLOAD","EPHEMERIS_TYPE":"0","MEAN_MOTION":"15.08847007","DECAY_DATE":null,"REF_FRAME":"TEME","OBJECT_ID":"2022-045U","PERIOD":"95.437","TLE_LINE1":"1 52349U 22045U   22226.91667824 -.00002081  00000-0 -11265-3 0  9994","REV_AT_EPOCH":"130","APOAPSIS":"541.058","EPOCH":"2022-08-14T22:00:00.999936","MEAN_ANOMALY":"44.8613","ECCENTRICITY":"0.00019280","COUNTRY_CODE":"US","GP_ID":"210235558","MEAN_MOTION_DDOT":"0.0000000000000","BSTAR":"-0.00011265000000","INCLINATION":"53.2145","CENTER_NAME":"EARTH","SEMIMAJOR_AXIS":"6917.859","ELEMENT_SET_NO":"999","NORAD_CAT_ID":"52349"},{"BSTAR":"-0.00007740400000","MEAN_MOTION_DDOT":"0.0000000000000","NORAD_CAT_ID":"52350","CENTER_NAME":"EARTH","INCLINATION":"53.2166","SEMIMAJOR_AXIS":"6917.871","ELEMENT_SET_NO":"999","TLE_LINE1":"1 52350U 22045V   22226.91667824 -.00001520  00000-0 -77404-4 0  9991","REF_FRAME":"TEME","OBJECT_ID":"2022-045V","PERIOD":"95.437","ECCENTRICITY":"0.00019860","COUNTRY_CODE":"US","GP_ID":"210234907","APOAPSIS":"541.110","REV_AT_EPOCH":"130","EPOCH":"2022-08-14T22:00:00.999936","MEAN_ANOMALY":"116.4778","SITE":"AFETR","OBJECT_TYPE":"PAYLOAD","EPHEMERIS_TYPE":"0","DECAY_DATE":null,"MEAN_MOTION":"15.08842938","FILE":"3536615","RA_OF_ASC_NODE":"287.5040","ARG_OF_PERICENTER":"47.3198","CLASSIFICATION_TYPE":"U","LAUNCH_DATE":"2022-04-29","RCS_SIZE":"LARGE","TIME_SYSTEM":"UTC","OBJECT_NAME":"STARLINK-3754","MEAN_MOTION_DOT":"-0.00001520","MEAN_ELEMENT_THEORY":"SGP4","TLE_LINE2":"2 52350  53.2166 287.5040 0001986  47.3198 116.4778 15.08842938  1308","PERIAPSIS":"538.363"},{"TIME_SYSTEM":"UTC","LAUNCH_DATE":"2022-04-29","RCS_SIZE":"LARGE","CLASSIFICATION_TYPE":"U","ARG_OF_PERICENTER":"45.2209","FILE":"3536592","RA_OF_ASC_NODE":"287.1257","PERIAPSIS":"538.558","MEAN_ELEMENT_THEORY":"SGP4","TLE_LINE2":"2 52351  53.2154 287.1257 0001778  45.2209 171.5750 15.08826043 19110","MEAN_MOTION_DOT":"0.00030759","OBJECT_NAME":"STARLINK-3816","SITE":"AFETR","OBJECT_TYPE":"PAYLOAD","DECAY_DATE":null,"MEAN_MOTION":"15.08826043","EPHEMERIS_TYPE":"0","PERIOD":"95.438","OBJECT_ID":"2022-045W","REF_FRAME":"TEME","TLE_LINE1":"1 52351U 22045W   22227.00001157  .00030759  00000-0  19430-2 0  9991","MEAN_ANOMALY":"171.5750","EPOCH":"2022-08-15T00:00:00.999648","REV_AT_EPOCH":"1911","APOAPSIS":"541.018","GP_ID":"210209992","COUNTRY_CODE":"US","ECCENTRICITY":"0.00017780","MEAN_MOTION_DDOT":"0.0000000000000","BSTAR":"0.00194300000000","ELEMENT_SET_NO":"999","SEMIMAJOR_AXIS":"6917.923","INCLINATION":"53.2154","CENTER_NAME":"EARTH","NORAD_CAT_ID":"52351"}];
